[{"OBJECT_NAME":"OBJECT C","OBJECT_ID":"2024-105C","EPOCH":"2026-03-09T23:58:12.857088","MEAN_MOTION":15.19285938,"ECCENTRICITY":0.00116684,"INCLINATION":97.5862,"RA_OF_ASC_NODE":85.5433,"ARG_OF_PERICENTER":201.9597,"MEAN_ANOMALY":158.1139,"EPHEMERIS_TYPE":0,"CLASSIFICATION_TYPE":"U","NORAD_CAT_ID":59919,"ELEMENT_SET_NO":999,"REV_AT_EPOCH":9810,"BSTAR":0.00030616598,"MEAN_MOTION_DOT":6.401e-5,"MEAN_MOTION_DDOT":0},{"OBJECT_NAME":"CZ-2C DEB","OBJECT_ID":"2012-056D","EPOCH":"2026-03-09T22:30:06.084288","MEAN_MOTION":15.2083784,"ECCENTRICITY":0.00097542,"INCLINATION":97.554,"RA_OF_ASC_NODE":138.2235,"ARG_OF_PERICENTER":53.3187,"MEAN_ANOMALY":306.8943,"EPHEMERIS_TYPE":0,"CLASSIFICATION_TYPE":"U","NORAD_CAT_ID":38863,"ELEMENT_SET_NO":999,"REV_AT_EPOCH":72819,"BSTAR":0.00094787805,"MEAN_MOTION_DOT":0.00020917,"MEAN_MOTION_DDOT":0}]
